{
  "type": "FeatureCollection",
  "features": [
    {
      "type": "Feature",
      "properties": {
        "norad_id": 30326,
        "name": "FENGYUN 1C DEB",
        "group": "fengyun-1c-debris",
        "lat": -8.963456210898752,
        "lon": 52.22004545333234,
        "alt_km": 1044.316450108542,
        "timestamp": "2025-12-12T05:47:29.046482+00:00",
        "meta_object_name": "FENGYUN 1C DEB",
        "meta_object_id": "1999-025AAM",
        "meta_epoch": "2025-12-11T11:33:27.502848",
        "meta_mean_motion": 13.85474255,
        "meta_eccentricity": 0.01424266,
        "meta_inclination": 98.6542,
        "meta_ra_of_asc_node": 232.8948,
        "meta_arg_of_pericenter": 33.9809,
        "meta_mean_anomaly": 327.0371,
        "meta_ephemeris_type": 0,
        "meta_classification_type": "U",
        "meta_norad_cat_id": 30326,
        "meta_element_set_no": 999,
        "meta_rev_at_epoch": 95438,
        "meta_bstar": 0.00028644128,
        "meta_mean_motion_dot": 3.14e-06,
        "meta_mean_motion_ddot": 0,
        "tle_line1": "1 30326U 99025AAM 25345.48156832  .00000314  00000+0  28644-3 0  9999",
        "tle_line2": "2 30326  98.6542 232.8948 0142426  33.9809 327.0371 13.85474255954383"
      },
      "geometry": {
        "type": "Point",
        "coordinates": [
          52.22004545333234,
          -8.963456210898752
        ]
      }
    },
    {
      "type": "Feature",
      "properties": {
        "norad_id": 30327,
        "name": "FENGYUN 1C DEB",
        "group": "fengyun-1c-debris",
        "lat": 0.5138252399507167,
        "lon": -119.50059800762911,
        "alt_km": 902.5925810991976,
        "timestamp": "2025-12-12T05:47:29.046492+00:00",
        "meta_object_name": "FENGYUN 1C DEB",
        "meta_object_id": "1999-025AAN",
        "meta_epoch": "2025-12-11T06:40:35.439744",
        "meta_mean_motion": 14.17968186,
        "meta_eccentricity": 0.01168868,
        "meta_inclination": 98.445,
        "meta_ra_of_asc_node": 239.6594,
        "meta_arg_of_pericenter": 147.0789,
        "meta_mean_anomaly": 340.6978,
        "meta_ephemeris_type": 0,
        "meta_classification_type": "U",
        "meta_norad_cat_id": 30327,
        "meta_element_set_no": 999,
        "meta_rev_at_epoch": 96422,
        "meta_bstar": 0.0025913683,
        "meta_mean_motion_dot": 5.637e-05,
        "meta_mean_motion_ddot": 0,
        "tle_line1": "1 30327U 99025AAN 25345.27818796  .00005637  00000+0  25914-2 0  9990",
        "tle_line2": "2 30327  98.4450 239.6594 0116886 147.0789 340.6978 14.17968186964222"
      },
      "geometry": {
        "type": "Point",
        "coordinates": [
          -119.50059800762911,
          0.5138252399507167
        ]
      }
    },
    {
      "type": "Feature",
      "properties": {
        "norad_id": 30328,
        "name": "FENGYUN 1C DEB",
        "group": "fengyun-1c-debris",
        "lat": 13.045060524639693,
        "lon": 178.40702738571247,
        "alt_km": 847.9351892521636,
        "timestamp": "2025-12-12T05:47:29.046502+00:00",
        "meta_object_name": "FENGYUN 1C DEB",
        "meta_object_id": "1999-025AAP",
        "meta_epoch": "2025-12-12T00:09:47.204640",
        "meta_mean_motion": 14.12473128,
        "meta_eccentricity": 0.00057398,
        "meta_inclination": 98.6865,
        "meta_ra_of_asc_node": 356.1498,
        "meta_arg_of_pericenter": 154.562,
        "meta_mean_anomaly": 260.309,
        "meta_ephemeris_type": 0,
        "meta_classification_type": "U",
        "meta_norad_cat_id": 30328,
        "meta_element_set_no": 999,
        "meta_rev_at_epoch": 97254,
        "meta_bstar": 0.00018556997,
        "meta_mean_motion_dot": 3e-06,
        "meta_mean_motion_ddot": 0,
        "tle_line1": "1 30328U 99025AAP 25346.00679635  .00000300  00000+0  18557-3 0  9998",
        "tle_line2": "2 30328  98.6865 356.1498 0005739 154.5620 260.3090 14.12473128972543"
      },
      "geometry": {
        "type": "Point",
        "coordinates": [
          178.40702738571247,
          13.045060524639693
        ]
      }
    },
    {
      "type": "Feature",
      "properties": {
        "norad_id": 30329,
        "name": "FENGYUN 1C DEB",
        "group": "fengyun-1c-debris",
        "lat": -79.21027129094186,
        "lon": 26.726170862249436,
        "alt_km": 1016.8362470585635,
        "timestamp": "2025-12-12T05:47:29.046513+00:00",
        "meta_object_name": "FENGYUN 1C DEB",
        "meta_object_id": "1999-025AAQ",
        "meta_epoch": "2025-12-11T18:15:16.458624",
        "meta_mean_motion": 13.86739606,
        "meta_eccentricity": 0.01423572,
        "meta_inclination": 99.2617,
        "meta_ra_of_asc_node": 265.1433,
        "meta_arg_of_pericenter": 38.1331,
        "meta_mean_anomaly": 349.019,
        "meta_ephemeris_type": 0,
        "meta_classification_type": "U",
        "meta_norad_cat_id": 30329,
        "meta_element_set_no": 999,
        "meta_rev_at_epoch": 95397,
        "meta_bstar": 0.00066895111,
        "meta_mean_motion_dot": 8e-06,
        "meta_mean_motion_ddot": 0,
        "tle_line1": "1 30329U 99025AAQ 25345.76060716  .00000800  00000+0  66895-3 0  9998",
        "tle_line2": "2 30329  99.2617 265.1433 0142357  38.1331 349.0190 13.86739606953976"
      },
      "geometry": {
        "type": "Point",
        "coordinates": [
          26.726170862249436,
          -79.21027129094186
        ]
      }
    },
    {
      "type": "Feature",
      "properties": {
        "norad_id": 30330,
        "name": "FENGYUN 1C DEB",
        "group": "fengyun-1c-debris",
        "lat": -48.35452326118254,
        "lon": -11.242021044638637,
        "alt_km": 1040.1508115088327,
        "timestamp": "2025-12-12T05:47:29.046523+00:00",
        "meta_object_name": "FENGYUN 1C DEB",
        "meta_object_id": "1999-025AAR",
        "meta_epoch": "2025-12-11T21:39:34.786944",
        "meta_mean_motion": 13.820553,
        "meta_eccentricity": 0.01875841,
        "meta_inclination": 98.8864,
        "meta_ra_of_asc_node": 338.3056,
        "meta_arg_of_pericenter": 187.0498,
        "meta_mean_anomaly": 237.2414,
        "meta_ephemeris_type": 0,
        "meta_classification_type": "U",
        "meta_norad_cat_id": 30330,
        "meta_element_set_no": 999,
        "meta_rev_at_epoch": 94646,
        "meta_bstar": 0.0017361764,
        "meta_mean_motion_dot": 2.095e-05,
        "meta_mean_motion_ddot": 0,
        "tle_line1": "1 30330U 99025AAR 25345.90248596  .00002095  00000+0  17362-2 0  9992",
        "tle_line2": "2 30330  98.8864 338.3056 0187584 187.0498 237.2414 13.82055300946461"
      },
      "geometry": {
        "type": "Point",
        "coordinates": [
          -11.242021044638637,
          -48.35452326118254
        ]
      }
    },
    {
      "type": "Feature",
      "properties": {
        "norad_id": 30331,
        "name": "FENGYUN 1C DEB",
        "group": "fengyun-1c-debris",
        "lat": 28.399422884376737,
        "lon": -154.27829060101888,
        "alt_km": 954.8507080329846,
        "timestamp": "2025-12-12T05:47:29.046533+00:00",
        "meta_object_name": "FENGYUN 1C DEB",
        "meta_object_id": "1999-025AAS",
        "meta_epoch": "2025-12-11T14:19:57.304992",
        "meta_mean_motion": 13.97827707,
        "meta_eccentricity": 0.00964359,
        "meta_inclination": 98.9569,
        "meta_ra_of_asc_node": 20.2017,
        "meta_arg_of_pericenter": 11.1268,
        "meta_mean_anomaly": 139.7659,
        "meta_ephemeris_type": 0,
        "meta_classification_type": "U",
        "meta_norad_cat_id": 30331,
        "meta_element_set_no": 999,
        "meta_rev_at_epoch": 96103,
        "meta_bstar": 0.00052187815,
        "meta_mean_motion_dot": 7.25e-06,
        "meta_mean_motion_ddot": 0,
        "tle_line1": "1 30331U 99025AAS 25345.59719103  .00000725  00000+0  52188-3 0  9999",
        "tle_line2": "2 30331  98.9569  20.2017 0096435  11.1268 139.7659 13.97827707961036"
      },
      "geometry": {
        "type": "Point",
        "coordinates": [
          -154.27829060101888,
          28.399422884376737
        ]
      }
    },
    {
      "type": "Feature",
      "properties": {
        "norad_id": 30332,
        "name": "FENGYUN 1C DEB",
        "group": "fengyun-1c-debris",
        "lat": -31.89897250492806,
        "lon": 131.631769902666,
        "alt_km": 1019.9948124601851,
        "timestamp": "2025-12-12T05:47:29.046565+00:00",
        "meta_object_name": "FENGYUN 1C DEB",
        "meta_object_id": "1999-025AAT",
        "meta_epoch": "2025-12-11T22:06:02.748096",
        "meta_mean_motion": 13.76708223,
        "meta_eccentricity": 0.01780691,
        "meta_inclination": 99.7151,
        "meta_ra_of_asc_node": 317.4255,
        "meta_arg_of_pericenter": 105.0968,
        "meta_mean_anomaly": 317.9405,
        "meta_ephemeris_type": 0,
        "meta_classification_type": "U",
        "meta_norad_cat_id": 30332,
        "meta_element_set_no": 999,
        "meta_rev_at_epoch": 94704,
        "meta_bstar": 0.00055544961,
        "meta_mean_motion_dot": 5.68e-06,
        "meta_mean_motion_ddot": 0,
        "tle_line1": "1 30332U 99025AAT 25345.92086514  .00000568  00000+0  55545-3 0  9995",
        "tle_line2": "2 30332  99.7151 317.4255 0178069 105.0968 317.9405 13.76708223947044"
      },
      "geometry": {
        "type": "Point",
        "coordinates": [
          131.631769902666,
          -31.89897250492806
        ]
      }
    }
  ]
}